0 FENGYUN 1C DEB
1 32167U 99025CTM 13276.28330705  .00000329  00000-0  13740-3 0  2222
2 32167 098.7869 297.4959 0176837 128.1541 233.5799 14.24522145325195
0 FENGYUN 1C DEB
1 32167U 99025CTM 13280.28694702  .00000354  00000-0  14617-3 0  2230
2 32167 098.7804 301.4833 0178044 116.3832 245.5822 14.24526073325762
0 FENGYUN 1C DEB
1 32167U 99025CTM 13289.27748643  .00000454  00000-0  18263-3 0  2245
2 32167 098.7712 310.4420 0178662 090.3866 271.8505 14.24536479327040
